{"fetched_at":"2026-07-24T07:06:08.057Z","source":"https://celestrak.org/NORAD/elements/gp.php?GROUP=oneweb&FORMAT=JSON","constellation":"oneweb","records":[{"OBJECT_NAME":"ONEWEB-0588","OBJECT_ID":"2023-004P","EPOCH":"2026-07-23T14:30:56.784096","CLASSIFICATION_TYPE":"U","MEAN_MOTION":13.18687174,"ECCENTRICITY":0.0001949,"INCLINATION":87.9197,"RA_OF_ASC_NODE":328.2268,"ARG_OF_PERICENTER":83.7313,"MEAN_ANOMALY":276.4041,"EPHEMERIS_TYPE":0,"NORAD_CAT_ID":55153,"ELEMENT_SET_NO":999,"REV_AT_EPOCH":17449,"BSTAR":0.00022722,"MEAN_MOTION_DOT":0.00000102,"MEAN_MOTION_DDOT":0},{"OBJECT_NAME":"ONEWEB-0598","OBJECT_ID":"2023-004Q","EPOCH":"2026-07-23T11:27:38.242944","CLASSIFICATION_TYPE":"U","MEAN_MOTION":13.11415068,"ECCENTRICITY":0.0002528,"INCLINATION":87.889,"RA_OF_ASC_NODE":13.8422,"ARG_OF_PERICENTER":94.0819,"MEAN_ANOMALY":266.0598,"EPHEMERIS_TYPE":0,"NORAD_CAT_ID":55154,"ELEMENT_SET_NO":999,"REV_AT_EPOCH":17065,"BSTAR":0.00024557,"MEAN_MOTION_DOT":0.000001,"MEAN_MOTION_DDOT":0},{"OBJECT_NAME":"ONEWEB-0599","OBJECT_ID":"2023-004R","EPOCH":"2026-07-23T20:29:40.822080","CLASSIFICATION_TYPE":"U","MEAN_MOTION":13.17647504,"ECCENTRICITY":0.000197,"INCLINATION":87.9154,"RA_OF_ASC_NODE":358.5702,"ARG_OF_PERICENTER":100.6468,"MEAN_ANOMALY":259.4885,"EPHEMERIS_TYPE":0,"NORAD_CAT_ID":55155,"ELEMENT_SET_NO":999,"REV_AT_EPOCH":17231,"BSTAR":0.00013931,"MEAN_MOTION_DOT":6.7e-7,"MEAN_MOTION_DDOT":0},{"OBJECT_NAME":"ONEWEB-0614","OBJECT_ID":"2023-004S","EPOCH":"2026-07-23T11:20:18.874752","CLASSIFICATION_TYPE":"U","MEAN_MOTION":13.11415639,"ECCENTRICITY":0.0001697,"INCLINATION":87.8879,"RA_OF_ASC_NODE":13.851,"ARG_OF_PERICENTER":87.1287,"MEAN_ANOMALY":273.0035,"EPHEMERIS_TYPE":0,"NORAD_CAT_ID":55156,"ELEMENT_SET_NO":999,"REV_AT_EPOCH":17059,"BSTAR":0.00080941,"MEAN_MOTION_DOT":0.000003,"MEAN_MOTION_DDOT":0},{"OBJECT_NAME":"ONEWEB-0616","OBJECT_ID":"2023-004T","EPOCH":"2026-07-23T08:44:59.433792","CLASSIFICATION_TYPE":"U","MEAN_MOTION":13.17647907,"ECCENTRICITY":0.0002106,"INCLINATION":87.9156,"RA_OF_ASC_NODE":358.6719,"ARG_OF_PERICENTER":119.9365,"MEAN_ANOMALY":240.1976,"EPHEMERIS_TYPE":0,"NORAD_CAT_ID":55157,"ELEMENT_SET_NO":999,"REV_AT_EPOCH":17246,"BSTAR":0.000018266,"MEAN_MOTION_DOT":2e-7,"MEAN_MOTION_DDOT":0},{"OBJECT_NAME":"ONEWEB-0617","OBJECT_ID":"2023-004U","EPOCH":"2026-07-23T00:04:00.307776","CLASSIFICATION_TYPE":"U","MEAN_MOTION":13.11418155,"ECCENTRICITY":0.00017564,"INCLINATION":87.8897,"RA_OF_ASC_NODE":13.9372,"ARG_OF_PERICENTER":83.0717,"MEAN_ANOMALY":277.0611,"EPHEMERIS_TYPE":0,"NORAD_CAT_ID":55158,"ELEMENT_SET_NO":999,"REV_AT_EPOCH":17055,"BSTAR":0.0014080284,"MEAN_MOTION_DOT":0.00000512,"MEAN_MOTION_DDOT":0},{"OBJECT_NAME":"ONEWEB-0618","OBJECT_ID":"2023-004V","EPOCH":"2026-07-23T19:47:40.249824","CLASSIFICATION_TYPE":"U","MEAN_MOTION":15.13467263,"ECCENTRICITY":0.0013806,"INCLINATION":86.9112,"RA_OF_ASC_NODE":162.7584,"ARG_OF_PERICENTER":145.9351,"MEAN_ANOMALY":214.2778,"EPHEMERIS_TYPE":0,"NORAD_CAT_ID":55159,"ELEMENT_SET_NO":999,"REV_AT_EPOCH":18780,"BSTAR":0.00032466,"MEAN_MOTION_DOT":0.00005849,"MEAN_MOTION_DDOT":0},{"OBJECT_NAME":"ONEWEB-0619","OBJECT_ID":"2023-004W","EPOCH":"2026-07-23T09:31:09.561216","CLASSIFICATION_TYPE":"U","MEAN_MOTION":13.17647742,"ECCENTRICITY":0.0001433,"INCLINATION":87.9163,"RA_OF_ASC_NODE":358.6493,"ARG_OF_PERICENTER":97.6583,"MEAN_ANOMALY":262.4712,"EPHEMERIS_TYPE":0,"NORAD_CAT_ID":55160,"ELEMENT_SET_NO":999,"REV_AT_EPOCH":17236,"BSTAR":0.000045479,"MEAN_MOTION_DOT":3.1e-7,"MEAN_MOTION_DDOT":0},{"OBJECT_NAME":"ONEWEB-0620","OBJECT_ID":"2023-004X","EPOCH":"2026-07-23T10:55:53.739840","CLASSIFICATION_TYPE":"U","MEAN_MOTION":13.11417941,"ECCENTRICITY":0.0002057,"INCLINATION":87.8887,"RA_OF_ASC_NODE":13.8539,"ARG_OF_PERICENTER":88.8699,"MEAN_ANOMALY":271.2664,"EPHEMERIS_TYPE":0,"NORAD_CAT_ID":55161,"ELEMENT_SET_NO":999,"REV_AT_EPOCH":17058,"BSTAR":0.0015888,"MEAN_MOTION_DOT":0.00000576,"MEAN_MOTION_DDOT":0},{"OBJECT_NAME":"ONEWEB-0621","OBJECT_ID":"2023-004Y","EPOCH":"2026-07-23T20:44:18.183840","CLASSIFICATION_TYPE":"U","MEAN_MOTION":13.1141399,"ECCENTRICITY":0.0001617,"INCLINATION":87.8893,"RA_OF_ASC_NODE":13.7647,"ARG_OF_PERICENTER":87.2714,"MEAN_ANOMALY":272.8599,"EPHEMERIS_TYPE":0,"NORAD_CAT_ID":55162,"ELEMENT_SET_NO":999,"REV_AT_EPOCH":17061,"BSTAR":0.00013293,"MEAN_MOTION_DOT":6e-7,"MEAN_MOTION_DDOT":0},{"OBJECT_NAME":"ONEWEB-0622","OBJECT_ID":"2023-004Z","EPOCH":"2026-07-23T11:42:16.994880","CLASSIFICATION_TYPE":"U","MEAN_MOTION":13.1141451,"ECCENTRICITY":0.0001898,"INCLINATION":87.8896,"RA_OF_ASC_NODE":13.8429,"ARG_OF_PERICENTER":69.4869,"MEAN_ANOMALY":290.6463,"EPHEMERIS_TYPE":0,"NORAD_CAT_ID":55163,"ELEMENT_SET_NO":999,"REV_AT_EPOCH":17055,"BSTAR":-0.00076436,"MEAN_MOTION_DOT":-0.00000258,"MEAN_MOTION_DDOT":0},{"OBJECT_NAME":"ONEWEB-0623","OBJECT_ID":"2023-004AA","EPOCH":"2026-07-23T09:23:52.748736","CLASSIFICATION_TYPE":"U","MEAN_MOTION":13.17648549,"ECCENTRICITY":0.0001321,"INCLINATION":87.9151,"RA_OF_ASC_NODE":358.6762,"ARG_OF_PERICENTER":72.0657,"MEAN_ANOMALY":288.0618,"EPHEMERIS_TYPE":0,"NORAD_CAT_ID":55164,"ELEMENT_SET_NO":999,"REV_AT_EPOCH":17235,"BSTAR":0.0000057506,"MEAN_MOTION_DOT":1.5e-7,"MEAN_MOTION_DDOT":0},{"OBJECT_NAME":"ONEWEB-0624","OBJECT_ID":"2023-004AB","EPOCH":"2026-07-23T07:37:50.700288","CLASSIFICATION_TYPE":"U","MEAN_MOTION":13.12928068,"ECCENTRICITY":0.0001722,"INCLINATION":87.8978,"RA_OF_ASC_NODE":343.3963,"ARG_OF_PERICENTER":94.7768,"MEAN_ANOMALY":265.3557,"EPHEMERIS_TYPE":0,"NORAD_CAT_ID":55165,"ELEMENT_SET_NO":999,"REV_AT_EPOCH":17281,"BSTAR":0.00023254,"MEAN_MOTION_DOT":9.7e-7,"MEAN_MOTION_DDOT":0},{"OBJECT_NAME":"ONEWEB-0625","OBJECT_ID":"2023-004AC","EPOCH":"2026-07-23T09:09:17.687808","CLASSIFICATION_TYPE":"U","MEAN_MOTION":13.17648172,"ECCENTRICITY":0.0001754,"INCLINATION":87.9156,"RA_OF_ASC_NODE":358.675,"ARG_OF_PERICENTER":99.2931,"MEAN_ANOMALY":260.8399,"EPHEMERIS_TYPE":0,"NORAD_CAT_ID":55166,"ELEMENT_SET_NO":999,"REV_AT_EPOCH":17234,"BSTAR":0.00011929,"MEAN_MOTION_DOT":5.9e-7,"MEAN_MOTION_DDOT":0},{"OBJECT_NAME":"ONEWEB-0626","OBJECT_ID":"2023-004AD","EPOCH":"2026-07-23T08:54:43.851168","CLASSIFICATION_TYPE":"U","MEAN_MOTION":13.17648841,"ECCENTRICITY":0.0002158,"INCLINATION":87.9153,"RA_OF_ASC_NODE":358.6766,"ARG_OF_PERICENTER":95.7078,"MEAN_ANOMALY":264.43,"EPHEMERIS_TYPE":0,"NORAD_CAT_ID":55167,"ELEMENT_SET_NO":999,"REV_AT_EPOCH":17234,"BSTAR":0.000087735,"MEAN_MOTION_DOT":4.7e-7,"MEAN_MOTION_DDOT":0},{"OBJECT_NAME":"ONEWEB-0627","OBJECT_ID":"2023-004AE","EPOCH":"2026-07-23T08:37:42.978144","CLASSIFICATION_TYPE":"U","MEAN_MOTION":13.17648784,"ECCENTRICITY":0.0001473,"INCLINATION":87.9158,"RA_OF_ASC_NODE":358.6792,"ARG_OF_PERICENTER":82.2049,"MEAN_ANOMALY":277.925,"EPHEMERIS_TYPE":0,"NORAD_CAT_ID":55168,"ELEMENT_SET_NO":999,"REV_AT_EPOCH":17234,"BSTAR":0.000066655,"MEAN_MOTION_DOT":3.9e-7,"MEAN_MOTION_DDOT":0}]}
