ONEWEB-0588             
1 55153U 23004P   26204.60482389  .00000102  00000+0  22722-3 0  9992
2 55153  87.9197 328.2268 0001949  83.7313 276.4041 13.18687174174496
ONEWEB-0598             
1 55154U 23004Q   26204.47752596  .00000100  00000+0  24557-3 0  9994
2 55154  87.8890  13.8422 0002528  94.0819 266.0598 13.11415068170655
ONEWEB-0599             
1 55155U 23004R   26204.85394470  .00000067  00000+0  13931-3 0  9996
2 55155  87.9154 358.5702 0001970 100.6468 259.4885 13.17647504172312
ONEWEB-0614             
1 55156U 23004S   26204.47244068  .00000300  00000+0  80941-3 0  9997
2 55156  87.8879  13.8510 0001697  87.1287 273.0035 13.11415639170591
ONEWEB-0616             
1 55157U 23004T   26204.36457678  .00000020  00000+0  18266-4 0  9990
2 55157  87.9156 358.6719 0002106 119.9365 240.1976 13.17647907172467
ONEWEB-0617             
1 55158U 23004U   26204.00278134  .00000512  00000+0  14080-2 0  9994
2 55158  87.8897  13.9372 0001756  83.0717 277.0611 13.11418155170555
ONEWEB-0618             
1 55159U 23004V   26204.82477141  .00005849  00000+0  32466-3 0  9991
2 55159  86.9112 162.7584 0013806 145.9351 214.2778 15.13467263187806
ONEWEB-0619             
1 55160U 23004W   26204.39663844  .00000031  00000+0  45479-4 0  9999
2 55160  87.9163 358.6493 0001433  97.6583 262.4712 13.17647742172365
ONEWEB-0620             
1 55161U 23004X   26204.45548310  .00000576  00000+0  15888-2 0  9990
2 55161  87.8887  13.8539 0002057  88.8699 271.2664 13.11417941170588
ONEWEB-0621             
1 55162U 23004Y   26204.86409935  .00000060  00000+0  13293-3 0  9992
2 55162  87.8893  13.7647 0001617  87.2714 272.8599 13.11413990170615
ONEWEB-0622             
1 55163U 23004Z   26204.48769670 -.00000258  00000+0 -76436-3 0  9995
2 55163  87.8896  13.8429 0001898  69.4869 290.6463 13.11414510170552
ONEWEB-0623             
1 55164U 23004AA  26204.39158274  .00000015  00000+0  57506-5 0  9996
2 55164  87.9151 358.6762 0001321  72.0657 288.0618 13.17648549172354
ONEWEB-0624             
1 55165U 23004AB  26204.31794792  .00000097  00000+0  23254-3 0  9991
2 55165  87.8978 343.3963 0001722  94.7768 265.3557 13.12928068172817
ONEWEB-0625             
1 55166U 23004AC  26204.38145472  .00000059  00000+0  11929-3 0  9998
2 55166  87.9156 358.6750 0001754  99.2931 260.8399 13.17648172172349
ONEWEB-0626             
1 55167U 23004AD  26204.37134087  .00000047  00000+0  87735-4 0  9994
2 55167  87.9153 358.6766 0002158  95.7078 264.4300 13.17648841172341
ONEWEB-0627             
1 55168U 23004AE  26204.35952521  .00000039  00000+0  66655-4 0  9993
2 55168  87.9158 358.6792 0001473  82.2049 277.9250 13.17648784172343
